{
  "type": "FeatureCollection",
  "features": [
    {
      "type": "Feature",
      "properties": {
        "norad_id": 41866,
        "name": "GOES 16",
        "group": "weather",
        "lat": -0.010787338514574772,
        "lon": -88.35789726704306,
        "alt_km": 35773.09539912444,
        "timestamp": "2025-12-22T18:58:53.062961+00:00",
        "meta_object_name": "GOES 16",
        "meta_object_id": "2016-071A",
        "meta_epoch": "2025-12-22T05:49:12.823392",
        "meta_mean_motion": 1.00271989,
        "meta_eccentricity": 0.00030663,
        "meta_inclination": 0.0713,
        "meta_ra_of_asc_node": 103.5201,
        "meta_arg_of_pericenter": 162.6815,
        "meta_mean_anomaly": 167.4855,
        "meta_ephemeris_type": 0,
        "meta_classification_type": "U",
        "meta_norad_cat_id": 41866,
        "meta_element_set_no": 999,
        "meta_rev_at_epoch": 3332,
        "meta_bstar": 0,
        "meta_mean_motion_dot": -6.9e-07,
        "meta_mean_motion_ddot": 0,
        "tle_line1": "1 41866U 16071A   25356.24250953 -.00000069  00000+0  00000+0 0  9995",
        "tle_line2": "2 41866   0.0713 103.5201 0003066 162.6815 167.4855  1.00271989 33328"
      },
      "geometry": {
        "type": "Point",
        "coordinates": [
          -88.35789726704306,
          -0.010787338514574772
        ]
      }
    },
    {
      "type": "Feature",
      "properties": {
        "norad_id": 41882,
        "name": "FENGYUN 4A",
        "group": "weather",
        "lat": 1.6024737271497849,
        "lon": 139.91986296976364,
        "alt_km": 35786.35678229079,
        "timestamp": "2025-12-22T18:58:53.062983+00:00",
        "meta_object_name": "FENGYUN 4A",
        "meta_object_id": "2016-077A",
        "meta_epoch": "2025-12-19T13:51:06.687072",
        "meta_mean_motion": 1.00266581,
        "meta_eccentricity": 0.0004506,
        "meta_inclination": 1.866,
        "meta_ra_of_asc_node": 82.3247,
        "meta_arg_of_pericenter": 142.8816,
        "meta_mean_anomaly": 194.7423,
        "meta_ephemeris_type": 0,
        "meta_classification_type": "U",
        "meta_norad_cat_id": 41882,
        "meta_element_set_no": 999,
        "meta_rev_at_epoch": 3312,
        "meta_bstar": 0,
        "meta_mean_motion_dot": -3.34e-06,
        "meta_mean_motion_ddot": 0,
        "tle_line1": "1 41882U 16077A   25353.57716073 -.00000334  00000+0  00000+0 0  9997",
        "tle_line2": "2 41882   1.8660  82.3247 0004506 142.8816 194.7423  1.00266581 33125"
      },
      "geometry": {
        "type": "Point",
        "coordinates": [
          139.91986296976364,
          1.6024737271497849
        ]
      }
    },
    {
      "type": "Feature",
      "properties": {
        "norad_id": 41884,
        "name": "CYGFM05",
        "group": "weather",
        "lat": -28.61718667133108,
        "lon": -69.88535457881997,
        "alt_km": 418.105147389444,
        "timestamp": "2025-12-22T18:58:53.063002+00:00",
        "meta_object_name": "CYGFM05",
        "meta_object_id": "2016-078A",
        "meta_epoch": "2025-12-22T06:50:34.483776",
        "meta_mean_motion": 15.47972398,
        "meta_eccentricity": 0.0010813,
        "meta_inclination": 34.9608,
        "meta_ra_of_asc_node": 344.7631,
        "meta_arg_of_pericenter": 266.357,
        "meta_mean_anomaly": 93.5915,
        "meta_ephemeris_type": 0,
        "meta_classification_type": "U",
        "meta_norad_cat_id": 41884,
        "meta_element_set_no": 999,
        "meta_rev_at_epoch": 50124,
        "meta_bstar": 0.00039510961,
        "meta_mean_motion_dot": 0.00021324,
        "meta_mean_motion_ddot": 0,
        "tle_line1": "1 41884U 16078A   25356.28512134  .00021324  00000+0  39511-3 0  9997",
        "tle_line2": "2 41884  34.9608 344.7631 0010813 266.3570  93.5915 15.47972398501246"
      },
      "geometry": {
        "type": "Point",
        "coordinates": [
          -69.88535457881997,
          -28.61718667133108
        ]
      }
    },
    {
      "type": "Feature",
      "properties": {
        "norad_id": 41885,
        "name": "CYGFM04",
        "group": "weather",
        "lat": -33.98273682319203,
        "lon": -119.00112414640353,
        "alt_km": 410.1898125473699,
        "timestamp": "2025-12-22T18:58:53.063019+00:00",
        "meta_object_name": "CYGFM04",
        "meta_object_id": "2016-078B",
        "meta_epoch": "2025-12-22T05:24:31.663008",
        "meta_mean_motion": 15.50741791,
        "meta_eccentricity": 0.00095949,
        "meta_inclination": 34.9357,
        "meta_ra_of_asc_node": 319.6539,
        "meta_arg_of_pericenter": 290.1059,
        "meta_mean_anomaly": 69.863,
        "meta_ephemeris_type": 0,
        "meta_classification_type": "U",
        "meta_norad_cat_id": 41885,
        "meta_element_set_no": 999,
        "meta_rev_at_epoch": 50141,
        "meta_bstar": 0.0004131743,
        "meta_mean_motion_dot": 0.00024599,
        "meta_mean_motion_ddot": 0,
        "tle_line1": "1 41885U 16078B   25356.22536647  .00024599  00000+0  41317-3 0  9991",
        "tle_line2": "2 41885  34.9357 319.6539 0009594 290.1059  69.8630 15.50741791501411"
      },
      "geometry": {
        "type": "Point",
        "coordinates": [
          -119.00112414640353,
          -33.98273682319203
        ]
      }
    },
    {
      "type": "Feature",
      "properties": {
        "norad_id": 41886,
        "name": "CYGFM02",
        "group": "weather",
        "lat": -7.864996032525863,
        "lon": -57.2741524575907,
        "alt_km": 405.2812256361676,
        "timestamp": "2025-12-22T18:58:53.063036+00:00",
        "meta_object_name": "CYGFM02",
        "meta_object_id": "2016-078C",
        "meta_epoch": "2025-12-22T05:08:53.104128",
        "meta_mean_motion": 15.52149177,
        "meta_eccentricity": 0.00112199,
        "meta_inclination": 34.9445,
        "meta_ra_of_asc_node": 317.9275,
        "meta_arg_of_pericenter": 291.1701,
        "meta_mean_anomaly": 68.7823,
        "meta_ephemeris_type": 0,
        "meta_classification_type": "U",
        "meta_norad_cat_id": 41886,
        "meta_element_set_no": 999,
        "meta_rev_at_epoch": 50154,
        "meta_bstar": 0.00041881463,
        "meta_mean_motion_dot": 0.00026253,
        "meta_mean_motion_ddot": 0,
        "tle_line1": "1 41886U 16078C   25356.21450352  .00026253  00000+0  41881-3 0  9994",
        "tle_line2": "2 41886  34.9445 317.9275 0011219 291.1701  68.7823 15.52149177501548"
      },
      "geometry": {
        "type": "Point",
        "coordinates": [
          -57.2741524575907,
          -7.864996032525863
        ]
      }
    },
    {
      "type": "Feature",
      "properties": {
        "norad_id": 41887,
        "name": "CYGFM01",
        "group": "weather",
        "lat": 5.016754286451261,
        "lon": -9.041656587023978,
        "alt_km": 420.9404866206178,
        "timestamp": "2025-12-22T18:58:53.063052+00:00",
        "meta_object_name": "CYGFM01",
        "meta_object_id": "2016-078D",
        "meta_epoch": "2025-12-22T05:01:07.711392",
        "meta_mean_motion": 15.48558372,
        "meta_eccentricity": 0.00104961,
        "meta_inclination": 34.9438,
        "meta_ra_of_asc_node": 347.5423,
        "meta_arg_of_pericenter": 258.1877,
        "meta_mean_anomaly": 101.7667,
        "meta_ephemeris_type": 0,
        "meta_classification_type": "U",
        "meta_norad_cat_id": 41887,
        "meta_element_set_no": 999,
        "meta_rev_at_epoch": 50117,
        "meta_bstar": 0.00038894204,
        "meta_mean_motion_dot": 0.00021426,
        "meta_mean_motion_ddot": 0,
        "tle_line1": "1 41887U 16078D   25356.20911703  .00021426  00000+0  38894-3 0  9993",
        "tle_line2": "2 41887  34.9438 347.5423 0010496 258.1877 101.7667 15.48558372501177"
      },
      "geometry": {
        "type": "Point",
        "coordinates": [
          -9.041656587023978,
          5.016754286451261
        ]
      }
    },
    {
      "type": "Feature",
      "properties": {
        "norad_id": 41888,
        "name": "CYGFM08",
        "group": "weather",
        "lat": 34.14091308471772,
        "lon": 70.43395732691826,
        "alt_km": 418.9867408750688,
        "timestamp": "2025-12-22T18:58:53.063069+00:00",
        "meta_object_name": "CYGFM08",
        "meta_object_id": "2016-078E",
        "meta_epoch": "2025-12-22T06:10:40.817568",
        "meta_mean_motion": 15.49790916,
        "meta_eccentricity": 0.00119,
        "meta_inclination": 34.9467,
        "meta_ra_of_asc_node": 330.1057,
        "meta_arg_of_pericenter": 281.1832,
        "meta_mean_anomaly": 78.7553,
        "meta_ephemeris_type": 0,
        "meta_classification_type": "U",
        "meta_norad_cat_id": 41888,
        "meta_element_set_no": 999,
        "meta_rev_at_epoch": 50141,
        "meta_bstar": 0.00041187253,
        "meta_mean_motion_dot": 0.00023725,
        "meta_mean_motion_ddot": 0,
        "tle_line1": "1 41888U 16078E   25356.25741687  .00023725  00000+0  41187-3 0  9994",
        "tle_line2": "2 41888  34.9467 330.1057 0011900 281.1832  78.7553 15.49790916501416"
      },
      "geometry": {
        "type": "Point",
        "coordinates": [
          70.43395732691826,
          34.14091308471772
        ]
      }
    }
  ]
}